STARLINK-31461          
1 59370U 24060Y   26068.52987329 -.00003497  00000+0 -11759-3 0  9993
2 59370  42.9991 249.9203 0000603 289.4421  70.6365 15.27585158110105
FLOCK 4G-10             
1 62670U 25009BP  26068.70827885  .00013952  00000+0  52624-3 0  9995
2 62670  97.3967 150.5883 0003469 341.4844  18.6269 15.27155944121340
