[{"OBJECT_NAME":"STARLINK-31461","OBJECT_ID":"2024-060Y","EPOCH":"2026-03-09T12:43:01.052256","MEAN_MOTION":15.27585158,"ECCENTRICITY":6.037e-5,"INCLINATION":42.9991,"RA_OF_ASC_NODE":249.9203,"ARG_OF_PERICENTER":289.4421,"MEAN_ANOMALY":70.6365,"EPHEMERIS_TYPE":0,"CLASSIFICATION_TYPE":"U","NORAD_CAT_ID":59370,"ELEMENT_SET_NO":999,"REV_AT_EPOCH":11010,"BSTAR":-0.00011759407,"MEAN_MOTION_DOT":-3.497e-5,"MEAN_MOTION_DDOT":0},{"OBJECT_NAME":"FLOCK 4G-10","OBJECT_ID":"2025-009BP","EPOCH":"2026-03-09T16:59:55.292640","MEAN_MOTION":15.27155944,"ECCENTRICITY":0.00034694,"INCLINATION":97.3967,"RA_OF_ASC_NODE":150.5883,"ARG_OF_PERICENTER":341.4844,"MEAN_ANOMALY":18.6269,"EPHEMERIS_TYPE":0,"CLASSIFICATION_TYPE":"U","NORAD_CAT_ID":62670,"ELEMENT_SET_NO":999,"REV_AT_EPOCH":12134,"BSTAR":0.00052624432,"MEAN_MOTION_DOT":0.00013952,"MEAN_MOTION_DDOT":0}]
